IRIDIUM 166             
1 43570U 18061B   24151.58581467  .00000099  00000+0  28283-4 0  9996
2 43570  86.3987   9.1697 0001921  90.6101 269.5315 14.34218761306247
IRIDIUM 158             
1 43571U 18061C   24151.62387650  .00000420  00000+0  14302-3 0  9994
2 43571  86.3986   9.1632 0002210  90.7149 269.4300 14.34218851306211
IRIDIUM 165             
1 43572U 18061D   24151.57946704  .00000415  00000+0  14128-3 0  9990
2 43572  86.3988   9.2140 0002189  91.8346 268.3100 14.34222037306234
IRIDIUM 155             
1 43573U 18061E   24151.61118590  .00000282  00000+0  93474-4 0  9994
2 43573  86.3984   9.1070 0001876  89.3021 270.8389 14.34218607306208
IRIDIUM 154             
1 43574U 18061F   24151.59215708  .00000606  00000+0  20921-3 0  9997
2 43574  86.3990   9.2116 0002338  81.6191 278.5270 14.34218372306253
IRIDIUM 163             
1 43575U 18061G   24151.57312491  .00000412  00000+0  14019-3 0  9999
2 43575  86.3984   9.1583 0002075  84.3208 275.8224 14.34221165306221
IRIDIUM 156             
1 43576U 18061H   24151.61752823  .00000293  00000+0  97570-4 0  9993
2 43576  86.3986   9.1462 0002112  91.6769 268.4668 14.34218391306222
IRIDIUM 164             
1 43577U 18061J   24151.59850124  .00000388  00000+0  13145-3 0  9994
2 43577  86.3987   9.1828 0002454  87.8729 272.2748 14.34220707306262
